[{"OBJECT_NAME":"STARLINK-30975","OBJECT_ID":"2023-183K","EPOCH":"2026-03-09T06:26:49.966368","MEAN_MOTION":15.26744851,"ECCENTRICITY":0.00016427,"INCLINATION":43.0011,"RA_OF_ASC_NODE":43.6658,"ARG_OF_PERICENTER":270.5537,"MEAN_ANOMALY":89.5126,"EPHEMERIS_TYPE":0,"CLASSIFICATION_TYPE":"U","NORAD_CAT_ID":58446,"ELEMENT_SET_NO":999,"REV_AT_EPOCH":12669,"BSTAR":2.3887429e-5,"MEAN_MOTION_DOT":3.81e-6,"MEAN_MOTION_DDOT":0},{"OBJECT_NAME":"COSMOS 1758","OBJECT_ID":"1986-046A","EPOCH":"2026-03-09T22:23:33.220896","MEAN_MOTION":15.25706639,"ECCENTRICITY":0.00131526,"INCLINATION":82.4607,"RA_OF_ASC_NODE":143.3203,"ARG_OF_PERICENTER":337.3781,"MEAN_ANOMALY":22.6875,"EPHEMERIS_TYPE":0,"CLASSIFICATION_TYPE":"U","NORAD_CAT_ID":16791,"ELEMENT_SET_NO":999,"REV_AT_EPOCH":16610,"BSTAR":0.00027304427,"MEAN_MOTION_DOT":7.006e-5,"MEAN_MOTION_DDOT":0}]
